[{"COMMENT":"GENERATED VIA SPACETRACK.ORG API","ORIGINATOR":"18 SPCS","NORAD_CAT_ID":"45120","OBJECT_NAME":"VPM","OBJECT_TYPE":"PAYLOAD","CLASSIFICATION_TYPE":"U","INTLDES":"19071K","EPOCH":"2020-07-06 04:49:25","EPOCH_MICROSECONDS":"210272","MEAN_MOTION":"15.34127125","ECCENTRICITY":"0.0012212","INCLINATION":"51.6428","RA_OF_ASC_NODE":"272.3824","ARG_OF_PERICENTER":"120.6607","MEAN_ANOMALY":"239.558","EPHEMERIS_TYPE":"0","ELEMENT_SET_NO":"999","REV_AT_EPOCH":"2389","BSTAR":"0.000068859","MEAN_MOTION_DOT":"0.00001931","MEAN_MOTION_DDOT":"0","FILE":"2780114","TLE_LINE0":"0 VPM","TLE_LINE1":"1 45120U 19071K   20188.20098623  .00001931  00000-0  68859-4 0  9993","TLE_LINE2":"2 45120  51.6428 272.3824 0012212 120.6607 239.5580 15.34127125 23893","OBJECT_ID":"2019-071K","OBJECT_NUMBER":"45120","SEMIMAJOR_AXIS":"6841.651","PERIOD":"93.864","APOGEE":"471.871","PERIGEE":"455.161","DECAYED":"0"},{"COMMENT":"GENERATED VIA SPACETRACK.ORG API","ORIGINATOR":"18 SPCS","NORAD_CAT_ID":"45120","OBJECT_NAME":"VPM","OBJECT_TYPE":"PAYLOAD","CLASSIFICATION_TYPE":"U","INTLDES":"19071K","EPOCH":"2020-07-06 12:38:26","EPOCH_MICROSECONDS":"197440","MEAN_MOTION":"15.34128371","ECCENTRICITY":"0.0012205","INCLINATION":"51.6427","RA_OF_ASC_NODE":"270.8073","ARG_OF_PERICENTER":"121.8658","MEAN_ANOMALY":"238.3513","EPHEMERIS_TYPE":"0","ELEMENT_SET_NO":"999","REV_AT_EPOCH":"2394","BSTAR":"0.000069775","MEAN_MOTION_DOT":"0.00001962","MEAN_MOTION_DDOT":"0","FILE":"2780392","TLE_LINE0":"0 VPM","TLE_LINE1":"1 45120U 19071K   20188.52669210 +.00001962 +00000-0 +69775-4 0  9996","TLE_LINE2":"2 45120 051.6427 270.8073 0012205 121.8658 238.3513 15.34128371023945","OBJECT_ID":"2019-071K","OBJECT_NUMBER":"45120","SEMIMAJOR_AXIS":"6841.647","PERIOD":"93.864","APOGEE":"471.862","PERIGEE":"455.162","DECAYED":"0"},{"COMMENT":"GENERATED VIA SPACETRACK.ORG API","ORIGINATOR":"18 SPCS","NORAD_CAT_ID":"45120","OBJECT_NAME":"VPM","OBJECT_TYPE":"PAYLOAD","CLASSIFICATION_TYPE":"U","INTLDES":"19071K","EPOCH":"2020-07-07 10:31:40","EPOCH_MICROSECONDS":"808064","MEAN_MOTION":"15.34132604","ECCENTRICITY":"0.0012177","INCLINATION":"51.6424","RA_OF_ASC_NODE":"266.3967","ARG_OF_PERICENTER":"125.0914","MEAN_ANOMALY":"235.1211","EPHEMERIS_TYPE":"0","ELEMENT_SET_NO":"999","REV_AT_EPOCH":"2408","BSTAR":"0.000077269","MEAN_MOTION_DOT":"0.00002214","MEAN_MOTION_DDOT":"0","FILE":"2780914","TLE_LINE0":"0 VPM","TLE_LINE1":"1 45120U 19071K   20189.43866676  .00002214  00000-0  77269-4 0  9990","TLE_LINE2":"2 45120  51.6424 266.3967 0012177 125.0914 235.1211 15.34132604 24083","OBJECT_ID":"2019-071K","OBJECT_NUMBER":"45120","SEMIMAJOR_AXIS":"6841.635","PERIOD":"93.864","APOGEE":"471.831","PERIGEE":"455.169","DECAYED":"0"},{"COMMENT":"GENERATED VIA SPACETRACK.ORG API","ORIGINATOR":"18 SPCS","NORAD_CAT_ID":"45120","OBJECT_NAME":"VPM","OBJECT_TYPE":"PAYLOAD","CLASSIFICATION_TYPE":"U","INTLDES":"19071K","EPOCH":"2020-07-07 16:46:53","EPOCH_MICROSECONDS":"503104","MEAN_MOTION":"15.34134075","ECCENTRICITY":"0.0012164","INCLINATION":"51.6423","RA_OF_ASC_NODE":"265.1366","ARG_OF_PERICENTER":"125.9719","MEAN_ANOMALY":"234.2393","EPHEMERIS_TYPE":"0","ELEMENT_SET_NO":"999","REV_AT_EPOCH":"2412","BSTAR":"0.00007958","MEAN_MOTION_DOT":"0.00002292","MEAN_MOTION_DDOT":"0","FILE":"2781189","TLE_LINE0":"0 VPM","TLE_LINE1":"1 45120U 19071K   20189.69923036 +.00002292 +00000-0 +79580-4 0  9996","TLE_LINE2":"2 45120 051.6423 265.1366 0012164 125.9719 234.2393 15.34134075024120","OBJECT_ID":"2019-071K","OBJECT_NUMBER":"45120","SEMIMAJOR_AXIS":"6841.630","PERIOD":"93.864","APOGEE":"471.817","PERIGEE":"455.173","DECAYED":"0"},{"COMMENT":"GENERATED VIA SPACETRACK.ORG API","ORIGINATOR":"18 SPCS","NORAD_CAT_ID":"45120","OBJECT_NAME":"VPM","OBJECT_TYPE":"PAYLOAD","CLASSIFICATION_TYPE":"U","INTLDES":"19071K","EPOCH":"2020-07-08 11:32:31","EPOCH_MICROSECONDS":"488864","MEAN_MOTION":"15.34137653","ECCENTRICITY":"0.0012135","INCLINATION":"51.6422","RA_OF_ASC_NODE":"261.3559","ARG_OF_PERICENTER":"128.7461","MEAN_ANOMALY":"231.4608","EPHEMERIS_TYPE":"0","ELEMENT_SET_NO":"999","REV_AT_EPOCH":"2424","BSTAR":"0.000080737","MEAN_MOTION_DOT":"0.00002331","MEAN_MOTION_DDOT":"0","FILE":"2781511","TLE_LINE0":"0 VPM","TLE_LINE1":"1 45120U 19071K   20190.48092001  .00002331  00000-0  80737-4 0  9994","TLE_LINE2":"2 45120  51.6422 261.3559 0012135 128.7461 231.4608 15.34137653 24240","OBJECT_ID":"2019-071K","OBJECT_NUMBER":"45120","SEMIMAJOR_AXIS":"6841.620","PERIOD":"93.863","APOGEE":"471.787","PERIGEE":"455.182","DECAYED":"0"},{"COMMENT":"GENERATED VIA SPACETRACK.ORG API","ORIGINATOR":"18 SPCS","NORAD_CAT_ID":"45120","OBJECT_NAME":"VPM","OBJECT_TYPE":"PAYLOAD","CLASSIFICATION_TYPE":"U","INTLDES":"19071K","EPOCH":"2020-07-08 16:13:55","EPOCH_MICROSECONDS":"955712","MEAN_MOTION":"15.34138736","ECCENTRICITY":"0.0012124","INCLINATION":"51.6422","RA_OF_ASC_NODE":"260.4108","ARG_OF_PERICENTER":"129.4133","MEAN_ANOMALY":"230.7925","EPHEMERIS_TYPE":"0","ELEMENT_SET_NO":"999","REV_AT_EPOCH":"2427","BSTAR":"0.000082058","MEAN_MOTION_DOT":"0.00002376","MEAN_MOTION_DDOT":"0","FILE":"2781776","TLE_LINE0":"0 VPM","TLE_LINE1":"1 45120U 19071K   20190.67634208 +.00002376 +00000-0 +82058-4 0  9993","TLE_LINE2":"2 45120 051.6422 260.4108 0012124 129.4133 230.7925 15.34138736024272","OBJECT_ID":"2019-071K","OBJECT_NUMBER":"45120","SEMIMAJOR_AXIS":"6841.616","PERIOD":"93.863","APOGEE":"471.776","PERIGEE":"455.187","DECAYED":"0"},{"COMMENT":"GENERATED VIA SPACETRACK.ORG API","ORIGINATOR":"18 SPCS","NORAD_CAT_ID":"45120","OBJECT_NAME":"VPM","OBJECT_TYPE":"PAYLOAD","CLASSIFICATION_TYPE":"U","INTLDES":"19071K","EPOCH":"2020-07-09 10:59:33","EPOCH_MICROSECONDS":"703872","MEAN_MOTION":"15.34142124","ECCENTRICITY":"0.0012096","INCLINATION":"51.6421","RA_OF_ASC_NODE":"256.6301","ARG_OF_PERICENTER":"132.1557","MEAN_ANOMALY":"228.0455","EPHEMERIS_TYPE":"0","ELEMENT_SET_NO":"999","REV_AT_EPOCH":"2439","BSTAR":"0.000076846","MEAN_MOTION_DOT":"0.000022","MEAN_MOTION_DDOT":"0","FILE":"2782089","TLE_LINE0":"0 VPM","TLE_LINE1":"1 45120U 19071K   20191.45802898 +.00002200 +00000-0 +76846-4 0  9996","TLE_LINE2":"2 45120 051.6421 256.6301 0012096 132.1557 228.0455 15.34142124024399","OBJECT_ID":"2019-071K","OBJECT_NUMBER":"45120","SEMIMAJOR_AXIS":"6841.606","PERIOD":"93.863","APOGEE":"471.747","PERIGEE":"455.196","DECAYED":"0"},{"COMMENT":"GENERATED VIA SPACETRACK.ORG API","ORIGINATOR":"18 SPCS","NORAD_CAT_ID":"45120","OBJECT_NAME":"VPM","OBJECT_TYPE":"PAYLOAD","CLASSIFICATION_TYPE":"U","INTLDES":"19071K","EPOCH":"2020-07-09 12:33:21","EPOCH_MICROSECONDS":"843072","MEAN_MOTION":"15.34142439","ECCENTRICITY":"0.0012094","INCLINATION":"51.6421","RA_OF_ASC_NODE":"256.3151","ARG_OF_PERICENTER":"132.3611","MEAN_ANOMALY":"227.8397","EPHEMERIS_TYPE":"0","ELEMENT_SET_NO":"999","REV_AT_EPOCH":"2440","BSTAR":"0.000076703","MEAN_MOTION_DOT":"0.00002196","MEAN_MOTION_DDOT":"0","FILE":"2782210","TLE_LINE0":"0 VPM","TLE_LINE1":"1 45120U 19071K   20191.52316948  .00002196  00000-0  76703-4 0  9996","TLE_LINE2":"2 45120  51.6421 256.3151 0012094 132.3611 227.8397 15.34142439 24403","OBJECT_ID":"2019-071K","OBJECT_NUMBER":"45120","SEMIMAJOR_AXIS":"6841.605","PERIOD":"93.863","APOGEE":"471.745","PERIGEE":"455.196","DECAYED":"0"},{"COMMENT":"GENERATED VIA SPACETRACK.ORG API","ORIGINATOR":"18 SPCS","NORAD_CAT_ID":"45120","OBJECT_NAME":"VPM","OBJECT_TYPE":"PAYLOAD","CLASSIFICATION_TYPE":"U","INTLDES":"19071K","EPOCH":"2020-07-10 12:00:23","EPOCH_MICROSECONDS":"715072","MEAN_MOTION":"15.34145678","ECCENTRICITY":"0.0012071","INCLINATION":"51.6434","RA_OF_ASC_NODE":"251.5891","ARG_OF_PERICENTER":"135.7306","MEAN_ANOMALY":"224.4643","EPHEMERIS_TYPE":"0","ELEMENT_SET_NO":"999","REV_AT_EPOCH":"2455","BSTAR":"0.000062802","MEAN_MOTION_DOT":"0.00001728","MEAN_MOTION_DDOT":"0","FILE":"2782697","TLE_LINE0":"0 VPM","TLE_LINE1":"1 45120U 19071K   20192.50027448 +.00001728 +00000-0 +62802-4 0  9994","TLE_LINE2":"2 45120 051.6434 251.5891 0012071 135.7306 224.4643 15.34145678024559","OBJECT_ID":"2019-071K","OBJECT_NUMBER":"45120","SEMIMAJOR_AXIS":"6841.596","PERIOD":"93.863","APOGEE":"471.719","PERIGEE":"455.202","DECAYED":"0"},{"COMMENT":"GENERATED VIA SPACETRACK.ORG API","ORIGINATOR":"18 SPCS","NORAD_CAT_ID":"45120","OBJECT_NAME":"VPM","OBJECT_TYPE":"PAYLOAD","CLASSIFICATION_TYPE":"U","INTLDES":"19071K","EPOCH":"2020-07-10 15:07:59","EPOCH_MICROSECONDS":"963232","MEAN_MOTION":"15.34146064","ECCENTRICITY":"0.0012064","INCLINATION":"51.6433","RA_OF_ASC_NODE":"250.959","ARG_OF_PERICENTER":"136.1826","MEAN_ANOMALY":"224.0115","EPHEMERIS_TYPE":"0","ELEMENT_SET_NO":"999","REV_AT_EPOCH":"2457","BSTAR":"0.000061716","MEAN_MOTION_DOT":"0.00001692","MEAN_MOTION_DDOT":"0","FILE":"2782844","TLE_LINE0":"0 VPM","TLE_LINE1":"1 45120U 19071K   20192.63055513  .00001692  00000-0  61716-4 0  9995","TLE_LINE2":"2 45120  51.6433 250.9590 0012064 136.1826 224.0115 15.34146064 24573","OBJECT_ID":"2019-071K","OBJECT_NUMBER":"45120","SEMIMAJOR_AXIS":"6841.595","PERIOD":"93.863","APOGEE":"471.713","PERIGEE":"455.206","DECAYED":"0"},{"COMMENT":"GENERATED VIA SPACETRACK.ORG API","ORIGINATOR":"18 SPCS","NORAD_CAT_ID":"45120","OBJECT_NAME":"VPM","OBJECT_TYPE":"PAYLOAD","CLASSIFICATION_TYPE":"U","INTLDES":"19071K","EPOCH":"2020-07-10 21:23:12","EPOCH_MICROSECONDS":"438816","MEAN_MOTION":"15.34147048","ECCENTRICITY":"0.001205","INCLINATION":"51.6433","RA_OF_ASC_NODE":"249.6988","ARG_OF_PERICENTER":"137.0974","MEAN_ANOMALY":"223.0951","EPHEMERIS_TYPE":"0","ELEMENT_SET_NO":"999","REV_AT_EPOCH":"2461","BSTAR":"0.000060751","MEAN_MOTION_DOT":"0.00001659","MEAN_MOTION_DDOT":"0","FILE":"2782901","TLE_LINE0":"0 VPM","TLE_LINE1":"1 45120U 19071K   20192.89111619 +.00001659 +00000-0 +60751-4 0  9994","TLE_LINE2":"2 45120 051.6433 249.6988 0012050 137.0974 223.0951 15.34147048024613","OBJECT_ID":"2019-071K","OBJECT_NUMBER":"45120","SEMIMAJOR_AXIS":"6841.592","PERIOD":"93.863","APOGEE":"471.701","PERIGEE":"455.213","DECAYED":"0"}]